{
  "norad_id": 67069,
  "name": "XIWANG-5 02",
  "history": [
    {
      "epoch": "2026-03-28T19:49:10.723584",
      "apogee_km": 523.0897872314499,
      "perigee_km": 518.4157893998645,
      "latitude_deg": 40.24701277906217,
      "longitude_deg": -113.82141824020073,
      "semi_major_axis_km": 6898.889788315657,
      "eccentricity": 0.00033875,
      "inclination_deg": 41.3507,
      "raan_deg": 218.9128,
      "arg_perigee_deg": 283.6952,
      "mean_anomaly_deg": 76.3491,
      "mean_motion_rev_day": 15.1507437
    }
  ]
}