{"fetched_at":"2026-03-30T13:17:50Z","count":15418,"tles":[{"name":"XIWANG-5 02","line1":"1 67069U 25296A   26087.82581856  .00013734  00000+0  72919-3 0  9996","line2":"2 67069  41.3507 218.9128 0003387 283.6952  76.3491 15.15074370 16041","category":"Other"}]}